{"type": "FeatureCollection", "features": [ {"type": "Feature", "properties": {"norad_id": 43010, "name": "FENGYUN 3D", "group": "weather", "lat": 70.2792213830149, "lon": -58.91402480432197, "alt_km": 819.204763739066, "timestamp": "2025-12-26T18:39:31.915623+00:00", "meta": {"OBJECT_NAME": "FENGYUN 3D", "OBJECT_ID": "2017-072A", "EPOCH": "2025-12-26T14:56:10.501728", "MEAN_MOTION": 14.1968714, "ECCENTRICITY": 0.00016151, "INCLINATION": 98.9916, "RA_OF_ASC_NODE": 327.1414, "ARG_OF_PERICENTER": 144.6156, "MEAN_ANOMALY": 215.5127, "EPHEMERIS_TYPE": 0, "CLASSIFICATION_TYPE": "U", "NORAD_CAT_ID": 43010, "ELEMENT_SET_NO": 999, "REV_AT_EPOCH": 42050, "BSTAR": 2.6162642e-05, "MEAN_MOTION_DOT": 9e-08, "MEAN_MOTION_DDOT": 0}, "tle": {"line1": "1 43010U 17072A   25360.62234377  .00000009  00000+0  26163-4 0  9995", "line2": "2 43010  98.9916 327.1414 0001615 144.6156 215.5127 14.19687140420509"}}, "geometry": {"type": "Point", "coordinates": [-58.91402480432197, 70.2792213830149]}}, {"type": "Feature", "properties": {"norad_id": 43013, "name": "NOAA 20 (JPSS-1)", "group": "weather", "lat": -36.10621493119085, "lon": 110.46315379928384, "alt_km": 834.4823927251555, "timestamp": "2025-12-26T18:39:31.915658+00:00", "meta": {"OBJECT_NAME": "NOAA 20 (JPSS-1)", "OBJECT_ID": "2017-073A", "EPOCH": "2025-12-26T14:15:32.122656", "MEAN_MOTION": 14.1952945, "ECCENTRICITY": 0.00020546, "INCLINATION": 98.7616, "RA_OF_ASC_NODE": 296.7404, "ARG_OF_PERICENTER": 67.5119, "MEAN_ANOMALY": 292.6275, "EPHEMERIS_TYPE": 0, "CLASSIFICATION_TYPE": "U", "NORAD_CAT_ID": 43013, "ELEMENT_SET_NO": 999, "REV_AT_EPOCH": 41998, "BSTAR": 7.2866784e-05, "MEAN_MOTION_DOT": 1.1e-06, "MEAN_MOTION_DDOT": 0}, "tle": {"line1": "1 43013U 17073A   25360.59412179  .00000110  00000+0  72867-4 0  9998", "line2": "2 43013  98.7616 296.7404 0002054  67.5119 292.6275 14.19529450419986"}}, "geometry": {"type": "Point", "coordinates": [110.46315379928384, -36.10621493119085]}}, {"type": "Feature", "properties": {"norad_id": 43226, "name": "GOES 17", "group": "weather", "lat": -0.161547204752145, "lon": -74.10146117790246, "alt_km": 35772.73239695772, "timestamp": "2025-12-26T18:39:31.915680+00:00", "meta": {"OBJECT_NAME": "GOES 17", "OBJECT_ID": "2018-022A", "EPOCH": "2025-12-26T13:28:40.537056", "MEAN_MOTION": 1.0027151, "ECCENTRICITY": 0.00031962, "INCLINATION": 0.4913, "RA_OF_ASC_NODE": 89.0151, "ARG_OF_PERICENTER": 191.2344, "MEAN_ANOMALY": 287.726, "EPHEMERIS_TYPE": 0, "CLASSIFICATION_TYPE": "U", "NORAD_CAT_ID": 43226, "ELEMENT_SET_NO": 999, "REV_AT_EPOCH": 2869, "BSTAR": 0, "MEAN_MOTION_DOT": -1.61e-06, "MEAN_MOTION_DDOT": 0}, "tle": {"line1": "1 43226U 18022A   25360.56158029 -.00000161  00000+0  00000+0 0  9999", "line2": "2 43226   0.4913  89.0151 0003196 191.2344 287.7260  1.00271510 28697"}}, "geometry": {"type": "Point", "coordinates": [-74.10146117790246, -0.161547204752145]}}, {"type": "Feature", "properties": {"norad_id": 43491, "name": "FENGYUN 2H", "group": "weather", "lat": 0.622760018961271, "lon": 94.69623274667092, "alt_km": 35795.73620577761, "timestamp": "2025-12-26T18:39:31.915695+00:00", "meta": {"OBJECT_NAME": "FENGYUN 2H", "OBJECT_ID": "2018-050A", "EPOCH": "2025-12-26T15:38:10.430304", "MEAN_MOTION": 1.00270166, "ECCENTRICITY": 0.00024589, "INCLINATION": 2.5845, "RA_OF_ASC_NODE": 81.1822, "ARG_OF_PERICENTER": 166.5562, "MEAN_ANOMALY": 161.5272, "EPHEMERIS_TYPE": 0, "CLASSIFICATION_TYPE": "U", "NORAD_CAT_ID": 43491, "ELEMENT_SET_NO": 999, "REV_AT_EPOCH": 2770, "BSTAR": 0, "MEAN_MOTION_DOT": -1.08e-06, "MEAN_MOTION_DDOT": 0}, "tle": {"line1": "1 43491U 18050A   25360.65150961 -.00000108  00000+0  00000+0 0  9992", "line2": "2 43491   2.5845  81.1822 0002458 166.5562 161.5272  1.00270166 27702"}}, "geometry": {"type": "Point", "coordinates": [94.69623274667092, 0.622760018961271]}}, {"type": "Feature", "properties": {"norad_id": 43689, "name": "METOP-C", "group": "weather", "lat": 79.25823109463153, "lon": -67.93473346734758, "alt_km": 812.89647981916, "timestamp": "2025-12-26T18:39:31.915707+00:00", "meta": {"OBJECT_NAME": "METOP-C", "OBJECT_ID": "2018-087A", "EPOCH": "2025-12-26T14:49:43.783104", "MEAN_MOTION": 14.2148962, "ECCENTRICITY": 5.501e-05, "INCLINATION": 98.691, "RA_OF_ASC_NODE": 58.1735, "ARG_OF_PERICENTER": 12.7587, "MEAN_ANOMALY": 347.3605, "EPHEMERIS_TYPE": 0, "CLASSIFICATION_TYPE": "U", "NORAD_CAT_ID": 43689, "ELEMENT_SET_NO": 999, "REV_AT_EPOCH": 37031, "BSTAR": 8.3688782e-05, "MEAN_MOTION_DOT": 1.39e-06, "MEAN_MOTION_DDOT": 0}, "tle": {"line1": "1 43689U 18087A   25360.61786786  .00000139  00000+0  83689-4 0  9999", "line2": "2 43689  98.6910  58.1735 0000550  12.7587 347.3605 14.21489620370313"}}, "geometry": {"type": "Point", "coordinates": [-67.93473346734758, 79.25823109463153]}}, {"type": "Feature", "properties": {"norad_id": 43823, "name": "GEO-KOMPSAT-2A", "group": "weather", "lat": 0.0036651542597302186, "lon": 143.62297157925795, "alt_km": 35786.82673704621, "timestamp": "2025-12-26T18:39:31.915728+00:00", "meta": {"OBJECT_NAME": "GEO-KOMPSAT-2A", "OBJECT_ID": "2018-100A", "EPOCH": "2025-12-25T12:13:38.614080", "MEAN_MOTION": 1.00268534, "ECCENTRICITY": 2.51e-05, "INCLINATION": 0.0434, "RA_OF_ASC_NODE": 172.7377, "ARG_OF_PERICENTER": 259.9479, "MEAN_ANOMALY": 333.2359, "EPHEMERIS_TYPE": 0, "CLASSIFICATION_TYPE": "U", "NORAD_CAT_ID": 43823, "ELEMENT_SET_NO": 999, "REV_AT_EPOCH": 2588, "BSTAR": 0, "MEAN_MOTION_DOT": -3.22e-06, "MEAN_MOTION_DDOT": 0}, "tle": {"line1": "1 43823U 18100A   25359.50947470 -.00000322  00000+0  00000+0 0  9996", "line2": "2 43823   0.0434 172.7377 0000251 259.9479 333.2359  1.00268534 25880"}}, "geometry": {"type": "Point", "coordinates": [143.62297157925795, 0.0036651542597302186]}}, {"type": "Feature", "properties": {"norad_id": 44387, "name": "METEOR-M2 2", "group": "weather", "lat": -47.00531407936585, "lon": -9.646736651473416, "alt_km": 818.8959917985294, "timestamp": "2025-12-26T18:39:31.915740+00:00", "meta": {"OBJECT_NAME": "METEOR-M2 2", "OBJECT_ID": "2019-038A", "EPOCH": "2025-12-26T13:49:29.247744", "MEAN_MOTION": 14.24297488, "ECCENTRICITY": 0.00018217, "INCLINATION": 98.8991, "RA_OF_ASC_NODE": 340.4749, "ARG_OF_PERICENTER": 122.7366, "MEAN_ANOMALY": 237.3988, "EPHEMERIS_TYPE": 0, "CLASSIFICATION_TYPE": "U", "NORAD_CAT_ID": 44387, "ELEMENT_SET_NO": 999, "REV_AT_EPOCH": 33672, "BSTAR": 0.00014598871, "MEAN_MOTION_DOT": 2.91e-06, "MEAN_MOTION_DDOT": 0}, "tle": {"line1": "1 44387U 19038A   25360.57603296  .00000291  00000+0  14599-3 0  9993", "line2": "2 44387  98.8991 340.4749 0001821 122.7366 237.3988 14.24297488336722"}}, "geometry": {"type": "Point", "coordinates": [-9.646736651473416, -47.00531407936585]}}, {"type": "Feature", "properties": {"norad_id": 47719, "name": "ARKTIKA-M 1", "group": "weather", "lat": 63.1060240878266, "lon": 176.91354529244143, "alt_km": 39138.53624164219, "timestamp": "2025-12-26T18:39:31.915753+00:00", "meta": {"OBJECT_NAME": "ARKTIKA-M 1", "OBJECT_ID": "2021-016A", "EPOCH": "2025-12-26T00:48:12.401568", "MEAN_MOTION": 2.00630537, "ECCENTRICITY": 0.72107999, "INCLINATION": 63.1768, "RA_OF_ASC_NODE": 82.1795, "ARG_OF_PERICENTER": 269.1717, "MEAN_ANOMALY": 15.5344, "EPHEMERIS_TYPE": 0, "CLASSIFICATION_TYPE": "U", "NORAD_CAT_ID": 47719, "ELEMENT_SET_NO": 999, "REV_AT_EPOCH": 3531, "BSTAR": 0, "MEAN_MOTION_DOT": -4.1e-07, "MEAN_MOTION_DDOT": 0}, "tle": {"line1": "1 47719U 21016A   25360.03347687 -.00000041  00000+0  00000+0 0  9996", "line2": "2 47719  63.1768  82.1795 7210799 269.1717  15.5344  2.00630537 35311"}}, "geometry": {"type": "Point", "coordinates": [176.91354529244143, 63.1060240878266]}}, {"type": "Feature", "properties": {"norad_id": 49008, "name": "FENGYUN 3E", "group": "weather", "lat": 47.84776160358808, "lon": -8.661655115695307, "alt_km": 821.9758666539828, "timestamp": "2025-12-26T18:39:31.915764+00:00", "meta": {"OBJECT_NAME": "FENGYUN 3E", "OBJECT_ID": "2021-062A", "EPOCH": "2025-12-26T15:02:53.736576", "MEAN_MOTION": 14.19882587, "ECCENTRICITY": 0.00010262, "INCLINATION": 98.7481, "RA_OF_ASC_NODE": 0.9833, "ARG_OF_PERICENTER": 185.6525, "MEAN_ANOMALY": 174.464, "EPHEMERIS_TYPE": 0, "CLASSIFICATION_TYPE": "U", "NORAD_CAT_ID": 49008, "ELEMENT_SET_NO": 999, "REV_AT_EPOCH": 23209, "BSTAR": 0.00015395903, "MEAN_MOTION_DOT": 2.83e-06, "MEAN_MOTION_DDOT": 0}, "tle": {"line1": "1 49008U 21062A   25360.62701084  .00000283  00000+0  15396-3 0  9995", "line2": "2 49008  98.7481   0.9833 0001026 185.6525 174.4640 14.19882587232099"}}, "geometry": {"type": "Point", "coordinates": [-8.661655115695307, 47.84776160358808]}}, {"type": "Feature", "properties": {"norad_id": 51850, "name": "GOES 18", "group": "weather", "lat": -0.011053042884416298, "lon": -121.61878658877673, "alt_km": 35787.260938163934, "timestamp": "2025-12-26T18:39:31.915779+00:00", "meta": {"OBJECT_NAME": "GOES 18", "OBJECT_ID": "2022-021A", "EPOCH": "2025-12-26T13:25:07.004640", "MEAN_MOTION": 1.00266539, "ECCENTRICITY": 2.67e-05, "INCLINATION": 0.0396, "RA_OF_ASC_NODE": 207.2899, "ARG_OF_PERICENTER": 107.2467, "MEAN_ANOMALY": 205.0399, "EPHEMERIS_TYPE": 0, "CLASSIFICATION_TYPE": "U", "NORAD_CAT_ID": 51850, "ELEMENT_SET_NO": 999, "REV_AT_EPOCH": 486, "BSTAR": 0, "MEAN_MOTION_DOT": 1.19e-06, "MEAN_MOTION_DDOT": 0}, "tle": {"line1": "1 51850U 22021A   25360.55910885  .00000119  00000+0  00000+0 0  9992", "line2": "2 51850   0.0396 207.2899 0000267 107.2467 205.0399  1.00266539  4866"}}, "geometry": {"type": "Point", "coordinates": [-121.61878658877673, -0.011053042884416298]}}]}